{
  "type": "FeatureCollection",
  "features": [
    {
      "type": "Feature",
      "properties": {
        "norad_id": 36036,
        "name": "SMOS",
        "group": "resource",
        "lat": 22.526430768479056,
        "lon": -177.16213487886648,
        "alt_km": 758.576225251988,
        "timestamp": "2025-12-27T12:55:14.143727+00:00",
        "meta_object_name": "SMOS",
        "meta_object_id": "2009-059A",
        "meta_epoch": "2025-12-27T06:08:36.339360",
        "meta_mean_motion": 14.39754308,
        "meta_eccentricity": 0.00010373,
        "meta_inclination": 98.4382,
        "meta_ra_of_asc_node": 186.0896,
        "meta_arg_of_pericenter": 84.1869,
        "meta_mean_anomaly": 275.9437,
        "meta_ephemeris_type": 0,
        "meta_classification_type": "U",
        "meta_norad_cat_id": 36036,
        "meta_element_set_no": 999,
        "meta_rev_at_epoch": 84871,
        "meta_bstar": 0.00015706219,
        "meta_mean_motion_dot": 4.49e-06,
        "meta_mean_motion_ddot": 0,
        "tle_line1": "1 36036U 09059A   25361.25597615  .00000449  00000+0  15706-3 0  9996",
        "tle_line2": "2 36036  98.4382 186.0896 0001037  84.1869 275.9437 14.39754308848718"
      },
      "geometry": {
        "type": "Point",
        "coordinates": [
          -177.16213487886648,
          22.526430768479056
        ]
      }
    },
    {
      "type": "Feature",
      "properties": {
        "norad_id": 36110,
        "name": "YAOGAN-7",
        "group": "resource",
        "lat": 67.23460880174795,
        "lon": -136.4137736734477,
        "alt_km": 645.6070089858686,
        "timestamp": "2025-12-27T12:55:14.143737+00:00",
        "meta_object_name": "YAOGAN-7",
        "meta_object_id": "2009-069A",
        "meta_epoch": "2025-12-27T06:06:34.402176",
        "meta_mean_motion": 14.77753868,
        "meta_eccentricity": 0.00235469,
        "meta_inclination": 98.0293,
        "meta_ra_of_asc_node": 242.9593,
        "meta_arg_of_pericenter": 231.8852,
        "meta_mean_anomaly": 128.0236,
        "meta_ephemeris_type": 0,
        "meta_classification_type": "U",
        "meta_norad_cat_id": 36110,
        "meta_element_set_no": 999,
        "meta_rev_at_epoch": 86423,
        "meta_bstar": 0.00011124746,
        "meta_mean_motion_dot": 7.48e-06,
        "meta_mean_motion_ddot": 0,
        "tle_line1": "1 36110U 09069A   25361.25456484  .00000748  00000+0  11125-3 0  9991",
        "tle_line2": "2 36110  98.0293 242.9593 0023546 231.8852 128.0236 14.77753868864238"
      },
      "geometry": {
        "type": "Point",
        "coordinates": [
          -136.4137736734477,
          67.23460880174795
        ]
      }
    },
    {
      "type": "Feature",
      "properties": {
        "norad_id": 36605,
        "name": "TANDEM-X",
        "group": "resource",
        "lat": -3.505690535040217,
        "lon": 7.161437873911959,
        "alt_km": 511.95109411408066,
        "timestamp": "2025-12-27T12:55:14.143747+00:00",
        "meta_object_name": "TANDEM-X",
        "meta_object_id": "2010-030A",
        "meta_epoch": "2025-12-26T13:13:25.252608",
        "meta_mean_motion": 15.1915819,
        "meta_eccentricity": 0.0001776,
        "meta_inclination": 97.4455,
        "meta_ra_of_asc_node": 5.7293,
        "meta_arg_of_pericenter": 92.0278,
        "meta_mean_anomaly": 268.116,
        "meta_ephemeris_type": 0,
        "meta_classification_type": "U",
        "meta_norad_cat_id": 36605,
        "meta_element_set_no": 999,
        "meta_rev_at_epoch": 86043,
        "meta_bstar": 6.7415e-05,
        "meta_mean_motion_dot": 1.349e-05,
        "meta_mean_motion_ddot": 0,
        "tle_line1": "1 36605U 10030A   25360.55098672  .00001349  00000+0  67415-4 0  9995",
        "tle_line2": "2 36605  97.4455   5.7293 0001776  92.0278 268.1160 15.19158190860436"
      },
      "geometry": {
        "type": "Point",
        "coordinates": [
          7.161437873911959,
          -3.505690535040217
        ]
      }
    },
    {
      "type": "Feature",
      "properties": {
        "norad_id": 36795,
        "name": "CARTOSAT-2B",
        "group": "resource",
        "lat": 48.02299368036422,
        "lon": 41.34150225463955,
        "alt_km": 620.6105228031693,
        "timestamp": "2025-12-27T12:55:14.143757+00:00",
        "meta_object_name": "CARTOSAT-2B",
        "meta_object_id": "2010-035A",
        "meta_epoch": "2025-12-27T07:49:48.213408",
        "meta_mean_motion": 14.78748388,
        "meta_eccentricity": 0.00124472,
        "meta_inclination": 97.7831,
        "meta_ra_of_asc_node": 49.8807,
        "meta_arg_of_pericenter": 33.4457,
        "meta_mean_anomaly": 326.7538,
        "meta_ephemeris_type": 0,
        "meta_classification_type": "U",
        "meta_norad_cat_id": 36795,
        "meta_element_set_no": 999,
        "meta_rev_at_epoch": 83445,
        "meta_bstar": 0.00016398198,
        "meta_mean_motion_dot": 1.155e-05,
        "meta_mean_motion_ddot": 0,
        "tle_line1": "1 36795U 10035A   25361.32625247  .00001155  00000+0  16398-3 0  9998",
        "tle_line2": "2 36795  97.7831  49.8807 0012447  33.4457 326.7538 14.78748388834453"
      },
      "geometry": {
        "type": "Point",
        "coordinates": [
          41.34150225463955,
          48.02299368036422
        ]
      }
    },
    {
      "type": "Feature",
      "properties": {
        "norad_id": 36834,
        "name": "YAOGAN-10",
        "group": "resource",
        "lat": 79.32998152000707,
        "lon": -26.336023565427713,
        "alt_km": 606.4006557059192,
        "timestamp": "2025-12-27T12:55:14.143768+00:00",
        "meta_object_name": "YAOGAN-10",
        "meta_object_id": "2010-038A",
        "meta_epoch": "2025-12-27T07:57:07.055424",
        "meta_mean_motion": 14.84663049,
        "meta_eccentricity": 0.00012573,
        "meta_inclination": 97.9135,
        "meta_ra_of_asc_node": 21.0419,
        "meta_arg_of_pericenter": 81.5895,
        "meta_mean_anomaly": 335.4129,
        "meta_ephemeris_type": 0,
        "meta_classification_type": "U",
        "meta_norad_cat_id": 36834,
        "meta_element_set_no": 999,
        "meta_rev_at_epoch": 83170,
        "meta_bstar": 0.00027280083,
        "meta_mean_motion_dot": 2.254e-05,
        "meta_mean_motion_ddot": 0,
        "tle_line1": "1 36834U 10038A   25361.33133166  .00002254  00000+0  27280-3 0  9993",
        "tle_line2": "2 36834  97.9135  21.0419 0001257  81.5895 335.4129 14.84663049831709"
      },
      "geometry": {
        "type": "Point",
        "coordinates": [
          -26.336023565427713,
          79.32998152000707
        ]
      }
    },
    {
      "type": "Feature",
      "properties": {
        "norad_id": 37216,
        "name": "COSMO-SKYMED 4",
        "group": "resource",
        "lat": -53.38160619787531,
        "lon": -8.103182145832923,
        "alt_km": 630.4033551622961,
        "timestamp": "2025-12-27T12:55:14.143778+00:00",
        "meta_object_name": "COSMO-SKYMED 4",
        "meta_object_id": "2010-060A",
        "meta_epoch": "2025-12-26T22:54:21.397248",
        "meta_mean_motion": 14.82164757,
        "meta_eccentricity": 0.0001417,
        "meta_inclination": 97.8809,
        "meta_ra_of_asc_node": 182.0638,
        "meta_arg_of_pericenter": 80.9318,
        "meta_mean_anomaly": 279.2055,
        "meta_ephemeris_type": 0,
        "meta_classification_type": "U",
        "meta_norad_cat_id": 37216,
        "meta_element_set_no": 999,
        "meta_rev_at_epoch": 81905,
        "meta_bstar": 0.0001546,
        "meta_mean_motion_dot": 1.179e-05,
        "meta_mean_motion_ddot": 0,
        "tle_line1": "1 37216U 10060A   25360.95441432  .00001179  00000+0  15460-3 0  9990",
        "tle_line2": "2 37216  97.8809 182.0638 0001417  80.9318 279.2055 14.82164757819050"
      },
      "geometry": {
        "type": "Point",
        "coordinates": [
          -8.103182145832923,
          -53.38160619787531
        ]
      }
    },
    {
      "type": "Feature",
      "properties": {
        "norad_id": 37387,
        "name": "RESOURCESAT-2",
        "group": "resource",
        "lat": -37.9699910461357,
        "lon": -121.91002474297352,
        "alt_km": 829.6346059411326,
        "timestamp": "2025-12-27T12:55:14.143789+00:00",
        "meta_object_name": "RESOURCESAT-2",
        "meta_object_id": "2011-015A",
        "meta_epoch": "2025-12-27T05:08:21.823872",
        "meta_mean_motion": 14.21595488,
        "meta_eccentricity": 0.00057191,
        "meta_inclination": 98.7858,
        "meta_ra_of_asc_node": 64.6997,
        "meta_arg_of_pericenter": 2.8787,
        "meta_mean_anomaly": 357.2422,
        "meta_ephemeris_type": 0,
        "meta_classification_type": "U",
        "meta_norad_cat_id": 37387,
        "meta_element_set_no": 999,
        "meta_rev_at_epoch": 76174,
        "meta_bstar": 8.1299367e-05,
        "meta_mean_motion_dot": 1.34e-06,
        "meta_mean_motion_ddot": 0,
        "tle_line1": "1 37387U 11015A   25361.21414148  .00000134  00000+0  81299-4 0  9998",
        "tle_line2": "2 37387  98.7858  64.6997 0005719   2.8787 357.2422 14.21595488761747"
      },
      "geometry": {
        "type": "Point",
        "coordinates": [
          -121.91002474297352,
          -37.9699910461357
        ]
      }
    }
  ]
}